<kml xmlns="http://www.opengis.net/kml/2.2"><Document>
<Placemark>
<ExtendedData></ExtendedData>
  <MultiGeometry>
<Polygon>
<outerBoundaryIs>
  <LinearRing><coordinates>77.077219,28.444461
77.0833232,28.4438468
77.085066649,28.442028492
77.085708616,28.441875963
77.088070543,28.439913074
77.090089148,28.437723727
77.091551437,28.429910635
77.091214881,28.41762249
77.09718688,28.417562733
77.105705981,28.419645875
77.109754952,28.421924798
77.115315905,28.427105485
77.132464,28.424134
77.139281269,28.42152911
77.139468951,28.418828144
77.139989325,28.41065039
77.141164157,28.411644747
77.143626453,28.418788037
77.147655051,28.418627621
77.148921116,28.423194535
77.144408722,28.42698937
77.139767582,28.43072746
77.136866658,28.433017092
77.139630559,28.434108491
77.139665198,28.435413856
77.140496224,28.43591125
77.14035159,28.437473685
77.140199972,28.439111049
77.139004029,28.440684401
77.130603343,28.440835394
77.125367663,28.441967513
77.124681002,28.444986292
77.12266399,28.452759266
77.125989936,28.455872076
77.127652909,28.457239797
77.127770929,28.459513004
77.118796271,28.469279696
77.1099611,28.4691335
77.092779,28.477721
77.094880662,28.481820197
77.071667571,28.477906704
77.073951,28.466725
77.082867,28.461268
77.083709,28.459627
77.077219,28.444461</coordinates></LinearRing></outerBoundaryIs></Polygon></MultiGeometry></Placemark>
<Placemark>
<ExtendedData></ExtendedData>
  <MultiGeometry>
<Polygon>
<outerBoundaryIs>
  <LinearRing><coordinates>77.070893899,28.434381644
77.067426339,28.437094128
77.05224289,28.421012231
77.059406736,28.406666161
77.066127512,28.394159122
77.074054442,28.397533397
77.0737326,28.3945133
77.079377627,28.392422247
77.080187,28.3873777
77.0810024,28.3808459
77.079629142,28.37284576
77.081113776,28.371636204
77.08256956,28.370195962
77.08398243,28.368708498
77.093957627,28.360978805
77.0939361,28.3631219
77.09395757,28.364094274
77.098764092,28.364084878
77.098778487,28.367207278
77.09891743,28.368784239
77.097570695,28.368798602
77.097662527,28.370301407
77.0994066,28.370709133
77.099418604,28.371430177
77.095316099,28.371452648
77.095322738,28.373230971
77.107488173,28.37342058
77.107166317,28.37661121
77.10694101,28.384181566
77.107536432,28.392629133
77.111275393,28.394479004
77.115684955,28.398395751
77.122401228,28.394167573
77.125609164,28.394337463
77.125460073,28.400008856
77.132625509,28.400312972
77.137001448,28.395671695
77.139945658,28.395423337
77.140314948,28.399724014
77.14440687,28.397365326
77.144441174,28.400952017
77.144775886,28.405199189
77.143949201,28.406789709
77.143240533,28.408134846
77.140020754,28.409541677
77.139901608,28.413552968
77.144116911,28.413251749
77.143895842,28.415366232
77.142186463,28.415432379
77.141392776,28.418735288
77.139340322,28.418801712
77.139293323,28.421574664
77.132464,28.424134
77.128065629,28.42480632
77.123635071,28.425440895
77.112426433,28.432228028
77.111713547,28.434409694
77.109222066,28.433863621
77.101494913,28.434619518
77.098828392,28.432230042
77.092892542,28.434010038
77.0862236,28.4451589
77.084003,28.439183
77.08014,28.434794
77.076567655,28.431913396
77.072121452,28.435525033
77.070893899,28.434381644</coordinates></LinearRing></outerBoundaryIs></Polygon></MultiGeometry></Placemark>
<Placemark>
<ExtendedData></ExtendedData>
  <MultiGeometry>
<Polygon>
<outerBoundaryIs>
  <LinearRing><coordinates>77.057584408,28.468803448
77.0683561,28.4606166
77.073951,28.466725
77.0716783,28.4778902
77.0948778,28.4818181
77.092779,28.477721
77.1099611,28.4691335
77.118799894,28.469267098
77.11407744,28.474229472
77.110254441,28.477665412
77.110376121,28.480387645
77.114911015,28.480362388
77.115311903,28.480953142
77.116843241,28.480588064
77.116803304,28.474520313
77.120477683,28.4744492
77.121147988,28.475340043
77.121947039,28.476117708
77.122353746,28.478587032
77.123072084,28.4787183
77.12370459,28.479000457
77.125141266,28.480017431
77.128077011,28.478596767
77.128152742,28.481314733
77.128764914,28.481750518
77.130590073,28.481829939
77.131729844,28.482780922
77.135404135,28.484117059
77.135843346,28.487279633
77.139296689,28.488644592
77.139532052,28.490406753
77.137664563,28.491527685
77.137717536,28.489131401
77.135930849,28.489074234
77.135788525,28.491591629
77.131189793,28.491624485
77.131075715,28.488470145
77.128295604,28.488552656
77.128300298,28.490149802
77.12683162,28.490101181
77.12622125,28.489411347
77.124399695,28.490143909
77.123173922,28.487913796
77.126462305,28.487112268
77.126196764,28.48467463
77.12885349,28.484474243
77.128808563,28.483317874
77.127455723,28.482324755
77.127015338,28.483035264
77.126301619,28.482504077
77.126738693,28.481880132
77.12410336,28.480549677
77.124000032,28.482538704
77.11848809,28.482590573
77.118469311,28.480718656
77.115789782,28.481487234
77.113110252,28.481991759
77.1143226,28.4856318
77.1182708,28.4960419
77.097784086,28.504870647
77.097124262,28.505741579
77.09859411,28.505786365
77.098358071,28.506630186
77.098014739,28.507148738
77.096941837,28.507129897
77.096324933,28.506446357
77.095193044,28.508892918
77.09456005,28.508657212
77.0931224,28.5112027
77.0932082,28.5136916
77.095563102,28.517583835
77.095600575,28.521287391
77.092499786,28.521341483
77.092553275,28.521866912
77.092478018,28.522392339
77.092134075,28.522382463
77.092047003,28.521759403
77.091829943,28.522172383
77.091224162,28.522131086
77.091214229,28.521784544
77.090507719,28.521845597
77.089266359,28.522420184
77.089229814,28.522739807
77.088985063,28.522738039
77.088967629,28.519717932
77.085027465,28.519635446
77.085043561,28.518867147
77.083616631,28.519555314
77.082967539,28.519550599
77.082962177,28.518867143
77.081663993,28.519988947
77.080762781,28.518650315
77.0793895,28.5174625
77.0754906,28.5131516
77.073038,28.5089401
77.0675449,28.5021518
77.058468235,28.492572035
77.057084234,28.493364049
77.052057783,28.487385694
77.05145563,28.486871762
77.049909338,28.486810462
77.049114066,28.484108765
77.049218505,28.483851205
77.049387316,28.483574783
77.049574736,28.483191681
77.0501178,28.482919089
77.049659771,28.482518746
77.049158827,28.482684217
77.048485425,28.482553961
77.048412838,28.481754155
77.044596285,28.480976077
77.043766456,28.479381372
77.043608834,28.477776255
77.045212794,28.476781355
77.0463876,28.477861213
77.046891846,28.477606581
77.04898396,28.479879348
77.049724241,28.478775972
77.05462731,28.472881691
77.054197141,28.471805558
77.055311925,28.469597652
77.057584408,28.468803448</coordinates></LinearRing></outerBoundaryIs></Polygon></MultiGeometry></Placemark>
<Placemark>
<ExtendedData></ExtendedData>
  <MultiGeometry>
<Polygon>
<outerBoundaryIs>
  <LinearRing><coordinates>77.0112729,28.6047673
77.015427,28.600517
77.0153942,28.5960825
77.0111027,28.5936709
77.0123043,28.5912216
77.017519,28.592477
77.0181394,28.5868314
77.0204568,28.5836659
77.0357347,28.5808772
77.0378804,28.5788422
77.0359063,28.5735659
77.0286965,28.5659526
77.0178837,28.5509468
77.0151587,28.5470152
77.0252868,28.5341217
77.0372172,28.5306531
77.0530959,28.5288433
77.0615419,28.5321064
77.062448,28.536836
77.0677646,28.5367438
77.0695242,28.5364799
77.06961,28.5378372
77.0743736,28.5423612
77.0610699,28.5449248
77.0590957,28.5460557
77.0915178,28.5837798
77.0870546,28.5867946
77.0840505,28.5876236
77.0825055,28.5902614
77.082248,28.5920701
77.0699187,28.5954038
77.0656272,28.5971371
77.0628806,28.5984936
77.0557346,28.6038085
77.053289,28.605822
77.0513793,28.6077246
77.049491,28.6090056
77.0481177,28.6095708
77.047096,28.610468
77.0466864,28.6111729
77.046386,28.6115355
77.0466005,28.611738
77.0458817,28.6118604
77.0441007,28.613179
77.0413756,28.6140832
77.0387148,28.6141586
77.0364403,28.6136688
77.0334362,28.6131414
77.0313478,28.6185589
77.0310474,28.619124
77.0286012,28.6191617
77.0257358,28.6192939
77.022636,28.6204049
77.0221095,28.6176175
77.018494,28.614423
77.0165849,28.6109489
77.0125509,28.6079348
77.0112729,28.6047673</coordinates></LinearRing></outerBoundaryIs></Polygon></MultiGeometry></Placemark>
<Placemark>
<ExtendedData></ExtendedData>
  <MultiGeometry>
<Polygon>
<outerBoundaryIs>
  <LinearRing><coordinates>77.228141,28.600453
77.228702,28.591277
77.22369,28.590586
77.225016,28.579926
77.22259,28.579587
77.221322,28.578043
77.214426,28.573396
77.209526,28.573235
77.199198,28.572209
77.199582,28.567008
77.207541,28.566255
77.207536,28.563203
77.206695,28.557809
77.209219,28.557079
77.212731,28.554219
77.211722,28.553091
77.211185,28.551681
77.21481,28.550613
77.21603,28.552228
77.219781,28.549616
77.224067,28.554892
77.228054,28.553797
77.228435,28.548642
77.231355,28.542034
77.219886,28.542835
77.219521,28.541317
77.219135,28.541053
77.220272,28.539979
77.223984,28.539772
77.225143,28.539319
77.22388,28.53772
77.22422,28.53685
77.22974,28.53562
77.2305027,28.5373301
77.23106,28.539649
77.231966,28.539809
77.233479,28.539517
77.235861,28.540233
77.237996,28.536002
77.23688,28.535002
77.238498,28.53306
77.246212,28.527688
77.250193,28.527933
77.250278,28.53027
77.251738,28.532297
77.25501,28.533494
77.256287,28.531062
77.258658,28.530318
77.259634,28.532957
77.264677,28.531722
77.26885,28.532834
77.269719,28.531024
77.271414,28.52897
77.276822,28.531647
77.276006,28.533023
77.28151,28.535784
77.28011,28.538645
77.284761,28.541091
77.284353,28.542919
77.283195,28.544144
77.278769,28.542302
77.277511,28.543586
77.27636,28.544229
77.275952,28.546152
77.277208,28.54765
77.282449,28.549941
77.280582,28.554605
77.281644,28.554704
77.281706,28.555683
77.282077,28.55619
77.281482,28.556622
77.281902,28.557128
77.281455,28.557767
77.281301,28.56083
77.282808,28.560816
77.285512,28.561909
77.285136,28.563228
77.284568,28.56303
77.283667,28.564519
77.283388,28.564528
77.282178,28.565167
77.280883,28.565137
77.279965,28.564019
77.278784,28.56406
77.278683,28.564579
77.277932,28.56459
77.277996,28.565263
77.277873,28.565819
77.274582,28.565814
77.274209,28.56613
77.27099,28.563916
77.26587,28.572573
77.263737,28.575215
77.270873,28.578893
77.269337,28.580999
77.267137,28.581221
77.263937,28.583173
77.260436,28.582241
77.256593,28.582515
77.253309,28.584905
77.252557,28.582745
77.251493,28.582833
77.248121,28.586916
77.246697,28.586653
77.243579,28.587239
77.2403,28.590539
77.239897,28.592672
77.247332,28.593268
77.246666,28.59939
77.243512,28.599426
77.243082,28.605829
77.240055,28.607331
77.228141,28.600453</coordinates></LinearRing></outerBoundaryIs></Polygon></MultiGeometry></Placemark>
<Placemark>
<ExtendedData></ExtendedData>
  <MultiGeometry>
<Polygon>
<outerBoundaryIs>
  <LinearRing><coordinates>77.1789085,28.5284404
77.1825134,28.5227469
77.1862041,28.5187122
77.189337,28.5185613
77.1974909,28.5220304
77.2056448,28.519768
77.225815,28.5155446
77.2291195,28.5222567
77.2314798,28.5275355
77.2319948,28.5331157
77.231909,28.5413346
77.2294667,28.5466786
77.2253468,28.5460001
77.217622,28.5514285
77.2128584,28.5544441
77.2090819,28.5572335
77.206832,28.557731
77.2070228,28.5595082
77.2009503,28.5606956
77.200092,28.5577743
77.193523,28.547848
77.184155,28.550211
77.1823602,28.551373
77.1806436,28.5497143
77.1785837,28.5455676
77.1754663,28.5403467
77.1789085,28.5284404</coordinates></LinearRing></outerBoundaryIs></Polygon></MultiGeometry></Placemark>
<Placemark>
<ExtendedData></ExtendedData>
  <MultiGeometry>
<Polygon>
<outerBoundaryIs>
  <LinearRing><coordinates>77.059016304,28.546027278
77.075839119,28.541804986
77.080838756,28.540542035
77.086299734,28.538694707
77.090832667,28.538110342
77.092189864,28.537808732
77.091224269,28.535890666
77.087340431,28.529693233
77.085945682,28.527744383
77.084336358,28.525116796
77.082995253,28.523369355
77.081654148,28.520075886
77.080656367,28.518469768
77.078800278,28.516863624
77.075216846,28.51269673
77.073972301,28.510566082
77.071633415,28.506662926
77.06605442,28.500213915
77.062277869,28.496102937
77.05850132,28.492482127
77.034468727,28.494896014
77.031893806,28.493839945
77.030520515,28.495650343
77.022452431,28.49655553
77.02107914,28.500477918
77.01867588,28.498064158
77.015242653,28.500477918
77.011981087,28.495801208
77.007346229,28.497762434
77.005801277,28.497460709
77.004084663,28.499120185
77.000479774,28.500025342
76.999482513,28.506059526
76.990899444,28.511188311
76.99913919,28.517674359
77.004289031,28.516920188
77.010468841,28.515260993
77.017163635,28.52069099
77.007207275,28.531550145
77.009782195,28.535923655
77.01664865,28.538487352
77.020253539,28.53622527
77.025403381,28.53803494
77.027119994,28.54813836
77.036218047,28.54798757
77.03656137,28.544820926
77.051324249,28.53773333
77.059016304,28.546027278</coordinates></LinearRing></outerBoundaryIs></Polygon></MultiGeometry></Placemark>
<Placemark>
<ExtendedData></ExtendedData>
  <MultiGeometry>
<Polygon>
<outerBoundaryIs>
  <LinearRing><coordinates>76.9658015,28.512556
76.9765303,28.5074273
76.9729254,28.5026755
76.9648574,28.4996583
76.9620249,28.4964148
76.9585917,28.4826098
76.953356,28.4789131
76.949322,28.47416
76.9512961,28.470463
76.9544718,28.4681994
76.9537852,28.4600126
76.9466183,28.4570697
76.9518111,28.4471084
76.9626796,28.4530856
76.9639977,28.4536071
76.9639977,28.4486264
76.9667443,28.4466077
76.9645771,28.4436267
76.9675168,28.4415512
76.969448,28.4400041
76.9724091,28.4394757
76.975499,28.4381927
76.988517,28.4366422
76.9964778,28.4325854
76.9983661,28.4353026
77.0012843,28.4392461
77.0025503,28.4405102
77.0102536,28.4359818
77.0168988,28.444011
77.0150105,28.444728
77.0129506,28.4456336
77.0164025,28.4491046
77.0145142,28.4495008
77.0135915,28.4497932
77.0127761,28.4500951
77.0121217,28.45018
77.0129156,28.4519251
77.013535,28.4532727
77.0137657,28.4538812
77.0137496,28.4540934
77.0149508,28.4557346
77.0171684,28.458772
77.0184773,28.4612998
77.0187992,28.4628655
77.0193785,28.4645255
77.0203227,28.4660535
77.0207947,28.4671476
77.0179623,28.4734854
77.0106915,28.4890506
77.0220265,28.5022745
77.0217529,28.5026328
77.021592,28.5028496
77.0211415,28.505564
77.0210244,28.5066914
77.0208206,28.50795
77.0203694,28.5106304
77.0170434,28.5109887
77.0124412,28.5145237
77.0104457,28.5145991
77.0077635,28.515391
77.00521,28.5165034
77.0032574,28.5170502
77.0023561,28.5155418
76.9990516,28.5176912
76.9972921,28.5161263
76.9944168,28.5173519
76.9925071,28.5150705
76.9908977,28.5135055
76.9834734,28.5171256
76.9791818,28.5207456
76.9782162,28.5189922
76.9745684,28.5177101
76.9697619,28.5147311
76.9658015,28.512556</coordinates></LinearRing></outerBoundaryIs></Polygon></MultiGeometry></Placemark>
<Placemark>
<ExtendedData></ExtendedData>
  <MultiGeometry>
<Polygon>
<outerBoundaryIs>
  <LinearRing><coordinates>77.070893899,28.434381644
77.067426339,28.437094128
77.05224289,28.421012231
77.059406736,28.406666161
77.066127512,28.394159122
77.074054442,28.397533397
77.0737326,28.3945133
77.079377627,28.392422247
77.080187,28.3873777
77.0810024,28.3808459
77.079629142,28.37284576
77.081113776,28.371636204
77.08256956,28.370195962
77.08398243,28.368708498
77.093957627,28.360978805
77.0939361,28.3631219
77.09395757,28.364094274
77.098764092,28.364084878
77.098778487,28.367207278
77.09891743,28.368784239
77.097570695,28.368798602
77.097662527,28.370301407
77.0994066,28.370709133
77.099418604,28.371430177
77.095316099,28.371452648
77.095322738,28.373230971
77.107488173,28.37342058
77.107166317,28.37661121
77.10694101,28.384181566
77.107536432,28.392629133
77.111275393,28.394479004
77.115684955,28.398395751
77.122401228,28.394167573
77.125609164,28.394337463
77.125460073,28.400008856
77.132625509,28.400312972
77.137001448,28.395671695
77.139945658,28.395423337
77.140314948,28.399724014
77.14440687,28.397365326
77.144441174,28.400952017
77.144775886,28.405199189
77.143949201,28.406789709
77.143240533,28.408134846
77.140020754,28.409541677
77.139901608,28.413552968
77.144116911,28.413251749
77.143895842,28.415366232
77.142186463,28.415432379
77.141392776,28.418735288
77.139340322,28.418801712
77.139293323,28.421574664
77.132464,28.424134
77.128065629,28.42480632
77.123635071,28.425440895
77.112426433,28.432228028
77.111713547,28.434409694
77.109222066,28.433863621
77.101494913,28.434619518
77.098828392,28.432230042
77.092892542,28.434010038
77.0862236,28.4451589
77.084003,28.439183
77.08014,28.434794
77.076567655,28.431913396
77.072121452,28.435525033
77.070893899,28.434381644</coordinates></LinearRing></outerBoundaryIs></Polygon></MultiGeometry></Placemark>
<Placemark>
<ExtendedData></ExtendedData>
  <MultiGeometry>
<Polygon>
<outerBoundaryIs>
  <LinearRing><coordinates>77.038365562,28.424945549
77.032411421,28.417297845
77.030148,28.409196624
77.034194094,28.403216311
77.041415923,28.3985192
77.053113,28.404074
77.061181,28.400262
77.0697984,28.3794472
77.0726597,28.3756732
77.0741189,28.3754466
77.0797408,28.3731433
77.081073,28.381337
77.079442,28.39246
77.0737326,28.3945133
77.0740759,28.3976089
77.087163,28.401234
77.082117,28.411075
77.0896971,28.4239561
77.082144,28.4330892
77.0794833,28.4390517
77.0638621,28.4376177
77.047103642,28.434976145
77.046867,28.428145
77.038365562,28.424945549</coordinates></LinearRing></outerBoundaryIs></Polygon></MultiGeometry></Placemark>
<Placemark>
<ExtendedData></ExtendedData>
  <MultiGeometry>
<Polygon>
<outerBoundaryIs>
  <LinearRing><coordinates>77.139399,28.673572
77.1385698,28.6704049
77.1351366,28.6670913
77.1301584,28.6627233
77.1296434,28.6594094
77.1238069,28.6529321
77.1363611,28.6205618
77.1366186,28.6161918
77.140996,28.6170206
77.1481199,28.6215413
77.1582479,28.6193563
77.1656294,28.6203358
77.1636553,28.6261371
77.1777315,28.6280959
77.19164,28.631386
77.1978007,28.6448983
77.1969881,28.6457649
77.1994376,28.6487782
77.1826058,28.6583034
77.1839873,28.6614694
77.1826569,28.6621096
77.1810261,28.6633522
77.1774641,28.6639171
77.1751038,28.6647078
77.173473,28.6655363
77.1716705,28.6659128
77.1697823,28.6664023
77.1599976,28.6708455
77.1563927,28.6703184
77.1555344,28.6726529
77.1448055,28.6765687
77.1413723,28.6787525
77.139399,28.673572</coordinates></LinearRing></outerBoundaryIs></Polygon></MultiGeometry></Placemark>
<Placemark>
<ExtendedData></ExtendedData>
  <MultiGeometry>
<Polygon>
<outerBoundaryIs>
  <LinearRing><coordinates>76.9221462,28.4220747
76.9238628,28.4178475
76.9228328,28.4126387
76.9204296,28.4100719
76.9206871,28.4058442
76.9086708,28.4009368
76.9169802,28.3954906
76.9141478,28.3924893
76.9156284,28.3910924
76.9164438,28.3905232
76.9171519,28.3902023
76.917345,28.3865779
76.920746,28.3866911
76.9206817,28.387399
76.9213039,28.3874179
76.9223446,28.38671
76.9262822,28.3838513
76.9271191,28.3834171
76.9299556,28.3794868
76.9294406,28.3771081
76.9294621,28.3755977
76.9296123,28.3745216
76.9304491,28.3735965
76.9317366,28.3731434
76.9340979,28.3729919
76.9338145,28.3618443
76.9405056,28.3615429
76.9450117,28.3603344
76.9520927,28.3604855
76.9593275,28.3545741
76.9653786,28.3542719
76.9682539,28.3520814
76.9696806,28.3518875
76.9704638,28.3537947
76.9706462,28.3546256
76.9713329,28.3544746
76.9745536,28.3553818
76.9787593,28.3572701
76.9815917,28.3610466
76.9841237,28.3620285
76.9871278,28.3594227
76.9888873,28.3601402
76.9915352,28.3661328
76.9912777,28.3727033
77.000176,28.380216
77.0047171,28.3814263
77.0090945,28.3831631
77.0100386,28.3846733
77.0101674,28.3882978
77.0066054,28.3890152
77.0028718,28.3898835
77.0059617,28.4085324
77.0062766,28.4155299
77.0037232,28.4153977
77.0036373,28.4182286
77.0022211,28.4182286
77.0022211,28.4204554
77.0007835,28.4204743
76.9984446,28.4205498
77.0003336,28.4241972
76.9931238,28.4277449
76.990506,28.4280091
76.987974,28.4232914
76.9798916,28.4232787
76.9659103,28.431773
76.950801,28.4375477
76.9451362,28.4380006
76.9310599,28.4341513
76.9263392,28.426377
76.9221335,28.4241125
76.9221462,28.4220747</coordinates></LinearRing></outerBoundaryIs></Polygon></MultiGeometry></Placemark>
<Placemark>
<ExtendedData></ExtendedData>
  <MultiGeometry>
<Polygon>
<outerBoundaryIs>
  <LinearRing><coordinates>77.016171,28.424416
77.0047822,28.429417
77.002057077,28.426265668
76.999589446,28.423038758
76.987699892,28.401377364
76.99281971,28.396437334
76.998073638,28.391605615
76.996586306,28.386370688
76.995115068,28.381711298
76.991472636,28.377402169
76.996729773,28.374282298
76.999310086,28.366819837
77.002534129,28.364303937
77.011947287,28.363067529
77.017683835,28.372456252
77.02814107,28.370516473
77.031417334,28.373339406
77.035716218,28.371465724
77.028853437,28.362107853
77.035766482,28.36147303
77.035727773,28.3591927
77.038540831,28.356655189
77.046341746,28.360711326
77.052211471,28.36454073
77.054640394,28.358653956
77.061446683,28.359036031
77.060215208,28.364257488
77.072002005,28.364526837
77.07184434,28.369004167
77.079619016,28.372979738
77.073378332,28.375684893
77.0697984,28.3794472
77.061181,28.400262
77.053113,28.404074
77.041583,28.398754
77.0371827,28.4013444
77.033748681,28.40364882
77.030143,28.409124
77.032317,28.416794
77.016171,28.424416</coordinates></LinearRing></outerBoundaryIs></Polygon></MultiGeometry></Placemark>
<Placemark>
<ExtendedData></ExtendedData>
  <MultiGeometry>
<Polygon>
<outerBoundaryIs>
  <LinearRing><coordinates>77.077219,28.444461
77.0833232,28.4438468
77.085066649,28.442028492
77.085708616,28.441875963
77.088070543,28.439913074
77.090089148,28.437723727
77.091551437,28.429910635
77.091214881,28.41762249
77.09718688,28.417562733
77.105705981,28.419645875
77.109754952,28.421924798
77.115315905,28.427105485
77.132464,28.424134
77.139281269,28.42152911
77.139468951,28.418828144
77.139989325,28.41065039
77.141164157,28.411644747
77.143626453,28.418788037
77.147655051,28.418627621
77.148921116,28.423194535
77.144408722,28.42698937
77.139767582,28.43072746
77.136866658,28.433017092
77.139630559,28.434108491
77.139665198,28.435413856
77.140496224,28.43591125
77.14035159,28.437473685
77.140199972,28.439111049
77.139004029,28.440684401
77.130603343,28.440835394
77.125367663,28.441967513
77.124681002,28.444986292
77.12266399,28.452759266
77.125989936,28.455872076
77.127652909,28.457239797
77.127770929,28.459513004
77.118796271,28.469279696
77.1099611,28.4691335
77.092779,28.477721
77.094880662,28.481820197
77.071667571,28.477906704
77.073951,28.466725
77.082867,28.461268
77.083709,28.459627
77.077219,28.444461</coordinates></LinearRing></outerBoundaryIs></Polygon></MultiGeometry></Placemark>
<Placemark>
<ExtendedData></ExtendedData>
  <MultiGeometry>
<Polygon>
<outerBoundaryIs>
  <LinearRing><coordinates>77.0047822,28.429417
77.032539119,28.416695556
77.036397963,28.421864971
77.038800069,28.424552133
77.046867,28.428145
77.0471251,28.433844
77.0506611,28.4346419
77.051172,28.435639
77.0638621,28.4376177
77.0794833,28.4390517
77.0809391,28.4357256
77.084003,28.439183
77.0850557,28.442043
77.0833232,28.4438468
77.077219,28.444461
77.083709,28.459627
77.082867,28.461268
77.072062725,28.477891491
77.058174435,28.468379017
77.057573646,28.468803434
77.056865569,28.469020357
77.056946005,28.467534902
77.051633883,28.462258981
77.048731058,28.463511669
77.046539357,28.461011291
77.048790903,28.4592706
77.046557795,28.457077121
77.041170571,28.451659182
77.035440024,28.445957961
77.0336805,28.445014624
77.012133577,28.4346933
77.0104204,28.4354862
77.0047822,28.429417</coordinates></LinearRing></outerBoundaryIs></Polygon></MultiGeometry></Placemark></Document></kml>